[
    {
        "Altitude(m)": 578009.7473258224,
        "Argument of Periapsis(deg)": -0.015068773855314936,
        "Eccentricity": 0.0,
        "Inclination(deg)": 97.0,
        "Latitude(deg)": -38.25155518137666,
        "Longitude(deg)": -66.02840066046089,
        "Mean Anomaly(deg)": 321.69909551279164,
        "RAAN(deg)": 30.003964702412336,
        "Satellite Name": "Starlink Shell 3 1690",
        "Satellite Number": 1690,
        "Semi-Major Axis(m)": 6938478.169268562,
        "Time(s)": 380
    },
    {
        "Altitude(m)": 577755.8460669975,
        "Argument of Periapsis(deg)": -0.015465320535717962,
        "Eccentricity": 0.0,
        "Inclination(deg)": 97.0,
        "Latitude(deg)": -37.6338075218946,
        "Longitude(deg)": -66.19192859252219,
        "Mean Anomaly(deg)": 322.3245717104967,
        "RAAN(deg)": 30.004069036686346,
        "Satellite Name": "Starlink Shell 3 1690",
        "Satellite Number": 1690,
        "Semi-Major Axis(m)": 6938478.169268562,
        "Time(s)": 390
    },
    {
        "Altitude(m)": 577502.4406124201,
        "Argument of Periapsis(deg)": -0.015861867216120987,
        "Eccentricity": 0.0,
        "Inclination(deg)": 97.0,
        "Latitude(deg)": -37.015842956734225,
        "Longitude(deg)": -66.35346515183025,
        "Mean Anomaly(deg)": 322.9500479082017,
        "RAAN(deg)": 30.004173370960352,
        "Satellite Name": "Starlink Shell 3 1690",
        "Satellite Number": 1690,
        "Semi-Major Axis(m)": 6938478.169268562,
        "Time(s)": 400
    },
    {
        "Altitude(m)": 577249.6287830194,
        "Argument of Periapsis(deg)": -0.01625841389652401,
        "Eccentricity": 0.0,
        "Inclination(deg)": 97.0,
        "Latitude(deg)": -36.39766647335807,
        "Longitude(deg)": -66.51308519971779,
        "Mean Anomaly(deg)": 323.57552410590677,
        "RAAN(deg)": 30.00427770523436,
        "Satellite Name": "Starlink Shell 3 1690",
        "Satellite Number": 1690,
        "Semi-Major Axis(m)": 6938478.169268562,
        "Time(s)": 410
    },
    {
        "Altitude(m)": 576997.5079678706,
        "Argument of Periapsis(deg)": -0.016654960576927034,
        "Eccentricity": 0.0,
        "Inclination(deg)": 97.0,
        "Latitude(deg)": -35.77928290057047,
        "Longitude(deg)": -66.67086088555854,
        "Mean Anomaly(deg)": 324.2010003036118,
        "RAAN(deg)": 30.00438203950838,
        "Satellite Name": "Starlink Shell 3 1690",
        "Satellite Number": 1690,
        "Semi-Major Axis(m)": 6938478.169268562,
        "Time(s)": 420
    },
    {
        "Altitude(m)": 576746.1750799378,
        "Argument of Periapsis(deg)": -0.01705150725733006,
        "Eccentricity": 0.0,
        "Inclination(deg)": 97.0,
        "Latitude(deg)": -35.160696919664474,
        "Longitude(deg)": -66.82686132314356,
        "Mean Anomaly(deg)": 324.82647650131685,
        "RAAN(deg)": 30.004486373782377,
        "Satellite Name": "Starlink Shell 3 1690",
        "Satellite Number": 1690,
        "Semi-Major Axis(m)": 6938478.169268562,
        "Time(s)": 430
    },
    {
        "Altitude(m)": 576495.726512034,
        "Argument of Periapsis(deg)": -0.017448053937733084,
        "Eccentricity": 0.0,
        "Inclination(deg)": 97.0,
        "Latitude(deg)": -34.541913074811916,
        "Longitude(deg)": -66.98115225541491,
        "Mean Anomaly(deg)": 325.4519526990219,
        "RAAN(deg)": 30.004590708056394,
        "Satellite Name": "Starlink Shell 3 1690",
        "Satellite Number": 1690,
        "Semi-Major Axis(m)": 6938478.169268562,
        "Time(s)": 440
    },
    {
        "Altitude(m)": 576246.2580929635,
        "Argument of Periapsis(deg)": -0.017844600618136107,
        "Eccentricity": 0.0,
        "Inclination(deg)": 97.0,
        "Latitude(deg)": -33.92293578275352,
        "Longitude(deg)": -67.13379722130347,
        "Mean Anomaly(deg)": 326.077428896727,
        "RAAN(deg)": 30.004695042330404,
        "Satellite Name": "Starlink Shell 3 1690",
        "Satellite Number": 1690,
        "Semi-Major Axis(m)": 6938478.169268562,
        "Time(s)": 450
    },
    {
        "Altitude(m)": 575997.8650438861,
        "Argument of Periapsis(deg)": -0.018241147298539134,
        "Eccentricity": 0.0,
        "Inclination(deg)": 97.0,
        "Latitude(deg)": -33.303769341836926,
        "Longitude(deg)": -67.2848571997201,
        "Mean Anomaly(deg)": 326.702905094432,
        "RAAN(deg)": 30.00479937660441,
        "Satellite Name": "Starlink Shell 3 1690",
        "Satellite Number": 1690,
        "Semi-Major Axis(m)": 6938478.169268562,
        "Time(s)": 460
    },
    {
        "Altitude(m)": 575750.6419349387,
        "Argument of Periapsis(deg)": -0.018637693978942157,
        "Eccentricity": 0.0,
        "Inclination(deg)": 97.0,
        "Latitude(deg)": -32.68441794045235,
        "Longitude(deg)": -67.43439024430826,
        "Mean Anomaly(deg)": 327.32838129213707,
        "RAAN(deg)": 30.00490371087842,
        "Satellite Name": "Starlink Shell 3 1690",
        "Satellite Number": 1690,
        "Semi-Major Axis(m)": 6938478.169268562,
        "Time(s)": 470
    },
    {
        "Altitude(m)": 575504.6826421126,
        "Argument of Periapsis(deg)": -0.019034240659345183,
        "Eccentricity": 0.0,
        "Inclination(deg)": 97.0,
        "Latitude(deg)": -32.06488566490817,
        "Longitude(deg)": -67.58245262250598,
        "Mean Anomaly(deg)": 327.9538574898421,
        "RAAN(deg)": 30.00500804515243,
        "Satellite Name": "Starlink Shell 3 1690",
        "Satellite Number": 1690,
        "Semi-Major Axis(m)": 6938478.169268562,
        "Time(s)": 480
    },
    {
        "Altitude(m)": 575260.0803044403,
        "Argument of Periapsis(deg)": -0.019430787339748207,
        "Eccentricity": 0.0,
        "Inclination(deg)": 97.0,
        "Latitude(deg)": -31.445176506785035,
        "Longitude(deg)": -67.72909843378481,
        "Mean Anomaly(deg)": 328.5793336875472,
        "RAAN(deg)": 30.005112379426436,
        "Satellite Name": "Starlink Shell 3 1690",
        "Satellite Number": 1690,
        "Semi-Major Axis(m)": 6938478.169268562,
        "Time(s)": 490
    },
    {
        "Altitude(m)": 575016.9272814806,
        "Argument of Periapsis(deg)": -0.019827334020151237,
        "Eccentricity": 0.0,
        "Inclination(deg)": 97.0,
        "Latitude(deg)": -30.825294369805746,
        "Longitude(deg)": -67.8743792205102,
        "Mean Anomaly(deg)": 329.20480988525225,
        "RAAN(deg)": 30.005216713700445,
        "Satellite Name": "Starlink Shell 3 1690",
        "Satellite Number": 1690,
        "Semi-Major Axis(m)": 6938478.169268562,
        "Time(s)": 500
    },
    {
        "Altitude(m)": 574775.3151111329,
        "Argument of Periapsis(deg)": -0.020223880700554257,
        "Eccentricity": 0.0,
        "Inclination(deg)": 97.0,
        "Latitude(deg)": -30.205243076254494,
        "Longitude(deg)": -68.01834508482047,
        "Mean Anomaly(deg)": 329.8302860829572,
        "RAAN(deg)": 30.005321047974455,
        "Satellite Name": "Starlink Shell 3 1690",
        "Satellite Number": 1690,
        "Semi-Major Axis(m)": 6938478.169268562,
        "Time(s)": 510
    },
    {
        "Altitude(m)": 574535.3344678376,
        "Argument of Periapsis(deg)": -0.020620427380957283,
        "Eccentricity": 0.0,
        "Inclination(deg)": 97.0,
        "Latitude(deg)": -29.58502637297447,
        "Longitude(deg)": -68.1610442862572,
        "Mean Anomaly(deg)": -29.54423771933776,
        "RAAN(deg)": 30.00542538224846,
        "Satellite Name": "Starlink Shell 3 1690",
        "Satellite Number": 1690,
        "Semi-Major Axis(m)": 6938478.169268562,
        "Time(s)": 520
    },
    {
        "Altitude(m)": 574297.0751211126,
        "Argument of Periapsis(deg)": -0.021016974061360306,
        "Eccentricity": 0.0,
        "Inclination(deg)": 97.0,
        "Latitude(deg)": -28.96464793697456,
        "Longitude(deg)": -68.30252283346599,
        "Mean Anomaly(deg)": -28.918761521632703,
        "RAAN(deg)": 30.00552971652247,
        "Satellite Name": "Starlink Shell 3 1690",
        "Satellite Number": 1690,
        "Semi-Major Axis(m)": 6938478.169268562,
        "Time(s)": 530
    },
    {
        "Altitude(m)": 574060.6258945254,
        "Argument of Periapsis(deg)": -0.021413520741763333,
        "Eccentricity": 0.0,
        "Inclination(deg)": 97.0,
        "Latitude(deg)": -28.34411138066958,
        "Longitude(deg)": -68.44282558325239,
        "Mean Anomaly(deg)": -28.293285323927652,
        "RAAN(deg)": 30.005634050796484,
        "Satellite Name": "Starlink Shell 3 1690",
        "Satellite Number": 1690,
        "Semi-Major Axis(m)": 6938478.169268562,
        "Time(s)": 540
    },
    {
        "Altitude(m)": 573826.07462507,
        "Argument of Periapsis(deg)": -0.021810067422166356,
        "Eccentricity": 0.0,
        "Inclination(deg)": 97.0,
        "Latitude(deg)": -27.723420256778677,
        "Longitude(deg)": -68.58199582162236,
        "Mean Anomaly(deg)": -27.66780912622264,
        "RAAN(deg)": 30.005738385070487,
        "Satellite Name": "Starlink Shell 3 1690",
        "Satellite Number": 1690,
        "Semi-Major Axis(m)": 6938478.169268562,
        "Time(s)": 550
    },
    {
        "Altitude(m)": 573593.5081229989,
        "Argument of Periapsis(deg)": -0.022206614102569383,
        "Eccentricity": 0.0,
        "Inclination(deg)": 97.0,
        "Latitude(deg)": -27.10257806290371,
        "Longitude(deg)": -68.7200748400315,
        "Mean Anomaly(deg)": -27.042332928517585,
        "RAAN(deg)": 30.0058427193445,
        "Satellite Name": "Starlink Shell 3 1690",
        "Satellite Number": 1690,
        "Semi-Major Axis(m)": 6938478.169268562,
        "Time(s)": 560
    }
]